{"fetched_at":"2026-07-05T17:36:07.652Z","source":"https://celestrak.org/NORAD/elements/gp.php?GROUP=kuiper&FORMAT=JSON","constellation":"kuiper","records":[{"OBJECT_NAME":"KUIPER-00357","OBJECT_ID":"2026-095C","EPOCH":"2026-07-05T00:00:02.999808","CLASSIFICATION_TYPE":"U","MEAN_MOTION":14.80000024,"ECCENTRICITY":0.00007273,"INCLINATION":51.9004,"RA_OF_ASC_NODE":164.3906,"ARG_OF_PERICENTER":55.9928,"MEAN_ANOMALY":116.7624,"EPHEMERIS_TYPE":0,"NORAD_CAT_ID":68866,"ELEMENT_SET_NO":999,"REV_AT_EPOCH":467,"BSTAR":-0.00064145329,"MEAN_MOTION_DOT":-0.00005115,"MEAN_MOTION_DDOT":0},{"OBJECT_NAME":"KUIPER-00364","OBJECT_ID":"2026-095D","EPOCH":"2026-07-05T00:00:02.999808","CLASSIFICATION_TYPE":"U","MEAN_MOTION":14.80036284,"ECCENTRICITY":0.00022067,"INCLINATION":51.9023,"RA_OF_ASC_NODE":166.8938,"ARG_OF_PERICENTER":146.3928,"MEAN_ANOMALY":221.9978,"EPHEMERIS_TYPE":0,"NORAD_CAT_ID":68867,"ELEMENT_SET_NO":999,"REV_AT_EPOCH":466,"BSTAR":-0.0016708841,"MEAN_MOTION_DOT":-0.00012967,"MEAN_MOTION_DDOT":0},{"OBJECT_NAME":"KUIPER-00375","OBJECT_ID":"2026-095E","EPOCH":"2026-07-05T06:00:04.999968","CLASSIFICATION_TYPE":"U","MEAN_MOTION":14.97239147,"ECCENTRICITY":0.00028306,"INCLINATION":51.898,"RA_OF_ASC_NODE":158.0125,"ARG_OF_PERICENTER":42.3672,"MEAN_ANOMALY":123.7707,"EPHEMERIS_TYPE":0,"NORAD_CAT_ID":68868,"ELEMENT_SET_NO":999,"REV_AT_EPOCH":556,"BSTAR":-0.20695618,"MEAN_MOTION_DOT":-0.02191757,"MEAN_MOTION_DDOT":0},{"OBJECT_NAME":"KUIPER-00433","OBJECT_ID":"2026-095F","EPOCH":"2026-07-04T22:58:22.472256","CLASSIFICATION_TYPE":"U","MEAN_MOTION":14.79922097,"ECCENTRICITY":0.00007962,"INCLINATION":51.8997,"RA_OF_ASC_NODE":174.5811,"ARG_OF_PERICENTER":71.5733,"MEAN_ANOMALY":288.5316,"EPHEMERIS_TYPE":0,"NORAD_CAT_ID":68869,"ELEMENT_SET_NO":999,"REV_AT_EPOCH":1021,"BSTAR":0.00053283436,"MEAN_MOTION_DOT":0.00003842,"MEAN_MOTION_DDOT":0},{"OBJECT_NAME":"KUIPER-00437","OBJECT_ID":"2026-095G","EPOCH":"2026-07-04T15:14:36.752640","CLASSIFICATION_TYPE":"U","MEAN_MOTION":15.3838619,"ECCENTRICITY":0.00087946,"INCLINATION":51.8782,"RA_OF_ASC_NODE":158.0012,"ARG_OF_PERICENTER":22.5834,"MEAN_ANOMALY":337.5539,"EPHEMERIS_TYPE":0,"NORAD_CAT_ID":68870,"ELEMENT_SET_NO":999,"REV_AT_EPOCH":1041,"BSTAR":0.0020283266,"MEAN_MOTION_DOT":0.00078494,"MEAN_MOTION_DDOT":0},{"OBJECT_NAME":"KUIPER-00448","OBJECT_ID":"2026-095H","EPOCH":"2026-07-05T06:00:04.999968","CLASSIFICATION_TYPE":"U","MEAN_MOTION":14.76603389,"ECCENTRICITY":0.00018735,"INCLINATION":51.903,"RA_OF_ASC_NODE":161.3106,"ARG_OF_PERICENTER":171.836,"MEAN_ANOMALY":7.4505,"EPHEMERIS_TYPE":0,"NORAD_CAT_ID":68871,"ELEMENT_SET_NO":999,"REV_AT_EPOCH":475,"BSTAR":-0.0023510774,"MEAN_MOTION_DOT":-0.00016741,"MEAN_MOTION_DDOT":0},{"OBJECT_NAME":"KUIPER-00459","OBJECT_ID":"2026-095J","EPOCH":"2026-07-05T06:00:04.999968","CLASSIFICATION_TYPE":"U","MEAN_MOTION":15.32109994,"ECCENTRICITY":0.00104455,"INCLINATION":51.8716,"RA_OF_ASC_NODE":156.0388,"ARG_OF_PERICENTER":20.2302,"MEAN_ANOMALY":339.766,"EPHEMERIS_TYPE":0,"NORAD_CAT_ID":68872,"ELEMENT_SET_NO":999,"REV_AT_EPOCH":499,"BSTAR":0.0011508262,"MEAN_MOTION_DOT":0.00036066,"MEAN_MOTION_DDOT":0},{"OBJECT_NAME":"KUIPER-00468","OBJECT_ID":"2026-095K","EPOCH":"2026-07-03T07:48:00.297216","CLASSIFICATION_TYPE":"U","MEAN_MOTION":15.37947257,"ECCENTRICITY":0.0004482,"INCLINATION":51.8814,"RA_OF_ASC_NODE":164.2391,"ARG_OF_PERICENTER":349.2897,"MEAN_ANOMALY":10.7993,"EPHEMERIS_TYPE":0,"NORAD_CAT_ID":68873,"ELEMENT_SET_NO":999,"REV_AT_EPOCH":1021,"BSTAR":0.00092731,"MEAN_MOTION_DOT":0.00034927,"MEAN_MOTION_DDOT":0},{"OBJECT_NAME":"KUIPER-00476","OBJECT_ID":"2026-095L","EPOCH":"2026-07-04T21:44:52.802016","CLASSIFICATION_TYPE":"U","MEAN_MOTION":15.34463558,"ECCENTRICITY":0.00094615,"INCLINATION":51.8723,"RA_OF_ASC_NODE":157.5142,"ARG_OF_PERICENTER":16.4994,"MEAN_ANOMALY":343.6298,"EPHEMERIS_TYPE":0,"NORAD_CAT_ID":68874,"ELEMENT_SET_NO":999,"REV_AT_EPOCH":1044,"BSTAR":0.001177896,"MEAN_MOTION_DOT":0.00039798,"MEAN_MOTION_DDOT":0},{"OBJECT_NAME":"KUIPER-00478","OBJECT_ID":"2026-095M","EPOCH":"2026-07-05T06:00:04.999968","CLASSIFICATION_TYPE":"U","MEAN_MOTION":15.22087682,"ECCENTRICITY":0.0008168,"INCLINATION":51.8813,"RA_OF_ASC_NODE":155.7052,"ARG_OF_PERICENTER":20.0767,"MEAN_ANOMALY":178.3095,"EPHEMERIS_TYPE":0,"NORAD_CAT_ID":68875,"ELEMENT_SET_NO":999,"REV_AT_EPOCH":509,"BSTAR":-0.065200702,"MEAN_MOTION_DOT":-0.01375776,"MEAN_MOTION_DDOT":0},{"OBJECT_NAME":"KUIPER-00480","OBJECT_ID":"2026-095N","EPOCH":"2026-07-05T06:00:04.999968","CLASSIFICATION_TYPE":"U","MEAN_MOTION":15.31935576,"ECCENTRICITY":0.00064029,"INCLINATION":51.8786,"RA_OF_ASC_NODE":155.0627,"ARG_OF_PERICENTER":14.3479,"MEAN_ANOMALY":133.0361,"EPHEMERIS_TYPE":0,"NORAD_CAT_ID":68876,"ELEMENT_SET_NO":999,"REV_AT_EPOCH":508,"BSTAR":-0.047409984,"MEAN_MOTION_DOT":-0.01353508,"MEAN_MOTION_DDOT":0},{"OBJECT_NAME":"KUIPER-00482","OBJECT_ID":"2026-095P","EPOCH":"2026-07-05T06:00:04.999968","CLASSIFICATION_TYPE":"U","MEAN_MOTION":14.80708765,"ECCENTRICITY":0.00012153,"INCLINATION":51.8996,"RA_OF_ASC_NODE":160.3369,"ARG_OF_PERICENTER":95.2716,"MEAN_ANOMALY":7.2565,"EPHEMERIS_TYPE":0,"NORAD_CAT_ID":68877,"ELEMENT_SET_NO":999,"REV_AT_EPOCH":263,"BSTAR":-0.0022242036,"MEAN_MOTION_DOT":-0.00017451,"MEAN_MOTION_DDOT":0},{"OBJECT_NAME":"KUIPER-00483","OBJECT_ID":"2026-095Q","EPOCH":"2026-07-05T00:18:56.318112","CLASSIFICATION_TYPE":"U","MEAN_MOTION":14.76491525,"ECCENTRICITY":0.00021691,"INCLINATION":51.8986,"RA_OF_ASC_NODE":173.8468,"ARG_OF_PERICENTER":213.5062,"MEAN_ANOMALY":146.5762,"EPHEMERIS_TYPE":0,"NORAD_CAT_ID":68878,"ELEMENT_SET_NO":999,"REV_AT_EPOCH":1022,"BSTAR":0.0021962233,"MEAN_MOTION_DOT":0.00015256,"MEAN_MOTION_DDOT":0},{"OBJECT_NAME":"KUIPER-00488","OBJECT_ID":"2026-095R","EPOCH":"2026-07-05T06:00:04.999968","CLASSIFICATION_TYPE":"U","MEAN_MOTION":15.0795878,"ECCENTRICITY":0.00113815,"INCLINATION":51.8883,"RA_OF_ASC_NODE":157.1343,"ARG_OF_PERICENTER":40.7198,"MEAN_ANOMALY":75.0157,"EPHEMERIS_TYPE":0,"NORAD_CAT_ID":68879,"ELEMENT_SET_NO":999,"REV_AT_EPOCH":369,"BSTAR":-0.076311913,"MEAN_MOTION_DOT":-0.01098879,"MEAN_MOTION_DDOT":0},{"OBJECT_NAME":"KUIPER-00489","OBJECT_ID":"2026-095S","EPOCH":"2026-07-05T06:00:04.999968","CLASSIFICATION_TYPE":"U","MEAN_MOTION":15.33391986,"ECCENTRICITY":0.0011868,"INCLINATION":51.8751,"RA_OF_ASC_NODE":155.9221,"ARG_OF_PERICENTER":12.0992,"MEAN_ANOMALY":62.5138,"EPHEMERIS_TYPE":0,"NORAD_CAT_ID":68880,"ELEMENT_SET_NO":999,"REV_AT_EPOCH":568,"BSTAR":0.00092376211,"MEAN_MOTION_DOT":0.00030065,"MEAN_MOTION_DDOT":0},{"OBJECT_NAME":"KUIPER-00499","OBJECT_ID":"2026-095T","EPOCH":"2026-07-05T06:00:04.999968","CLASSIFICATION_TYPE":"U","MEAN_MOTION":15.19050775,"ECCENTRICITY":0.00081596,"INCLINATION":51.877,"RA_OF_ASC_NODE":156.5201,"ARG_OF_PERICENTER":24.8636,"MEAN_ANOMALY":66.6671,"EPHEMERIS_TYPE":0,"NORAD_CAT_ID":68881,"ELEMENT_SET_NO":999,"REV_AT_EPOCH":536,"BSTAR":-0.046358172,"MEAN_MOTION_DOT":-0.00913942,"MEAN_MOTION_DDOT":0}]}
